{
  "norad_id": 68490,
  "name": "TRANSPORTER-16 OBJECT CC",
  "history": [
    {
      "epoch": "2026-04-15T20:55:34.999968Z",
      "apogee_km": 594.6461838991936,
      "perigee_km": 592.8488320730348,
      "latitude_deg": -5.288385791930791e-06,
      "longitude_deg": -92.82140411751283,
      "height_km": 597.6798263827905,
      "semi_major_axis_km": 6971.884507986114,
      "eccentricity": 0.0001289,
      "inclination_deg": 97.757,
      "raan_deg": 65.1022,
      "arg_perigee_deg": 187.6401,
      "mean_anomaly_deg": 172.4798,
      "mean_motion_rev_day": 14.91342813
    }
  ]
}