TRANSPORTER-16 OBJECT CC
1 68490U 26067CC  26105.87193288  .00000570  00000+0  62700-4 0  9998
2 68490  97.7570  65.1022 0001289 187.6401 172.4798 14.91342813  2430
